{
  "norad_id": 57258,
  "name": "STARLINK-5476",
  "history": [
    {
      "epoch": "2026-03-28T22:00:01.999584Z",
      "apogee_km": 490.2727264922496,
      "perigee_km": 488.2479430620633,
      "latitude_deg": 43.06612807272231,
      "longitude_deg": -150.9529839284863,
      "height_km": 493.405528180627,
      "semi_major_axis_km": 6867.397334777156,
      "eccentricity": 0.00014742,
      "inclination_deg": 42.9993,
      "raan_deg": 270.8076,
      "arg_perigee_deg": 273.9607,
      "mean_anomaly_deg": 179.3871,
      "mean_motion_rev_day": 15.25508032
    },
    {
      "epoch": "2026-03-29T04:00:01.999584Z",
      "apogee_km": 489.633489425215,
      "perigee_km": 486.8800655204477,
      "latitude_deg": 18.789656524803725,
      "longitude_deg": 44.088887947243464,
      "height_km": 487.93241849657414,
      "semi_major_axis_km": 6866.393777472831,
      "eccentricity": 0.0002005,
      "inclination_deg": 42.9991,
      "raan_deg": 269.3989,
      "arg_perigee_deg": 280.2923,
      "mean_anomaly_deg": 107.7816,
      "mean_motion_rev_day": 15.25842485
    }
  ]
}